SL-16 R/B               
1 25400U 98043G   26064.59196085  .00000094  00000+0  58289-4 0  9994
2 25400  98.8249  17.9266 0010407  31.7253 328.4551 14.26048600438405
SL-16 R/B               
1 25407U 98045B   26064.68835711 -.00000110  00000+0 -31582-4 0  9997
2 25407  71.0114 189.9878 0006504  14.1090 346.0214 14.16189129426536
ISS (ZARYA)             
1 25544U 98067A   26064.70570909  .00008837  00000+0  17141-3 0  9997
2 25544  51.6315  92.0530 0008143 160.3826 199.7477 15.48463204555718
CZ-4B R/B               
1 25732U 99025C   26064.72394169  .00000077  00000+0  57910-4 0  9992
2 25732  98.6634 109.0993 0036967 358.0685 110.0549 14.18264521387602
OKEAN-O                 
1 25860U 99039A   26064.66395561  .00000953  00000+0  13192-3 0  9995
2 25860  97.9450 124.5962 0001383  70.4114 289.7247 14.80328183433791
SL-16 R/B               
1 25861U 99039B   26064.71514196  .00000837  00000+0  11296-3 0  9993
2 25861  97.9973 123.8176 0013431 270.3696  89.5978 14.81725530436275
DELTA 2 R/B             
1 25876U 99041E   26064.76054674  .00001708  00000+0  31258-3 0  9995
2 25876  51.7640 316.9739 0502363 336.8392  21.0590 14.11825663362470
HELIOS 1B               
1 25977U 99064A   26064.67829742  .00003067  00000+0  34317-3 0  9997
2 25977  98.1698 326.8039 0002507  80.2123 279.9376 14.87680091684661
TERRA                   
1 25994U 99068A   26064.74927943  .00000631  00000+0  13779-3 0  9993
2 25994  97.9601 118.3344 0002458 160.9170 293.1291 14.61010039394503
SL-16 R/B               
1 26070U 00006B   26064.56143884  .00000128  00000+0  89070-4 0  9996
2 26070  71.0012 106.5183 0017079 195.9469 164.1119 14.15825328347971
TITAN 4B R/B            
1 26474U 00047B   26064.72101337  .00005640  00000+0  35306-3 0  9990
2 26474  67.9891  51.6692 0038219  40.0831 320.3126 15.09515276392319
ENVISAT                 
1 27386U 02009A   26064.77996306  .00000200  00000+0  78469-4 0  9991
2 27386  98.3723  18.4705 0001327  84.4108 296.1474 14.39035303258619
